GSLV R/B                
1 54149U 22138AN  26064.24144157  .00004744  00000+0  41075-3 0  9993
2 54149  87.3887 167.8509 0022391 162.0590 198.1437 14.96738149183267
XRISM                   
1 57800U 23137A   26064.08395891  .00007086  00000+0  40306-3 0  9993
2 57800  31.0029 313.4527 0008122 351.8434   8.2072 15.11436955137092
ACS3                    
1 59588U 24077B   26064.24939983  .00024087  00000+0  19469-1 0  9990
2 59588  97.2102   6.3601 0056414  88.4202 272.3422 13.89370277 93582
SZ-21 MODULE            
1 66515U 25246C   26064.17031800  .00041059  00000+0  35896-3 0  9992
2 66515  41.4734 231.1730 0001468 290.3140  69.7543 15.68139607 17360
